[{"OBJECT_NAME":"JACKAL X-1L-001","OBJECT_ID":"2024-043AF","EPOCH":"2026-03-09T21:53:51.909504","MEAN_MOTION":15.41200084,"ECCENTRICITY":0.00073606,"INCLINATION":97.5425,"RA_OF_ASC_NODE":210.2937,"ARG_OF_PERICENTER":209.2709,"MEAN_ANOMALY":150.8126,"EPHEMERIS_TYPE":0,"CLASSIFICATION_TYPE":"U","NORAD_CAT_ID":59127,"ELEMENT_SET_NO":999,"REV_AT_EPOCH":11224,"BSTAR":0.00050692817,"MEAN_MOTION_DOT":0.00021003,"MEAN_MOTION_DDOT":0},{"OBJECT_NAME":"OPS 6432","OBJECT_ID":"1983-056A","EPOCH":"2026-03-09T09:42:49.398624","MEAN_MOTION":13.88372019,"ECCENTRICITY":0.06998718,"INCLINATION":63.303,"RA_OF_ASC_NODE":88.4155,"ARG_OF_PERICENTER":131.4024,"MEAN_ANOMALY":234.9391,"EPHEMERIS_TYPE":0,"CLASSIFICATION_TYPE":"U","NORAD_CAT_ID":14112,"ELEMENT_SET_NO":999,"REV_AT_EPOCH":9444,"BSTAR":0.00034445981,"MEAN_MOTION_DOT":3.135e-5,"MEAN_MOTION_DDOT":0}]
